VSP RF A1               
1 59135U 24043AP  26066.03073316  .00000577  00000+0  25199-4 0  9997
2 59135  97.5247 201.5379 0009431 234.6315 125.4042 15.26179596111403
STARLINK-31464          
1 59318U 24056Y   26066.77561499  .00001482  00000+0  63377-4 0  9995
2 59318  42.9986 241.3384 0001422 289.0593  71.0104 15.27583803110867
